FLOCK 4G-31             
1 62652U 25009AV  26115.78083457  .00011022  00000+0  40547-3 0  9992
2 62652  97.3971 197.6954 0003028 125.0877 235.0647 15.28039568 70903
FLOCK 4G-4              
1 62659U 25009BC  26115.79332600  .00010029  00000+0  37185-3 0  9997
2 62659  97.3954 197.4473 0003834 132.3387 227.8177 15.27803809128500
FLOCK 4G-6              
1 62660U 25009BD  26115.79434484  .00010193  00000+0  36930-3 0  9991
2 62660  97.3945 197.5327 0004591 142.8685 217.2873 15.28559673128491
FLOCK 4G-2              
1 62661U 25009BE  26115.73830367  .00010669  00000+0  38346-3 0  9997
2 62661  97.4009 198.0115 0005423 139.6457 220.5186 15.28807005128513
FLOCK 4G-5              
1 62663U 25009BG  26115.76771684  .00010094  00000+0  35464-3 0  9998
2 62663  97.4024 198.3418 0004822 125.0010 235.1683 15.29570052 70922
FLOCK 4G-1              
1 62666U 25009BK  26115.77819962  .00010899  00000+0  39473-3 0  9991
2 62666  97.4024 198.0388 0005669 138.1839 221.9835 15.28548669 70900
FLOCK 4G-14             
1 62667U 25009BL  26115.78722639  .00010057  00000+0  36860-3 0  9990
2 62667  97.4026 197.8939 0005920 133.0523 227.1213 15.28176200 70890
FLOCK 4G-10             
1 62670U 25009BP  26115.86733058  .00011706  00000+0  42797-3 0  9998
2 62670  97.3928 197.3689 0005663 147.1717 212.9876 15.28220236128548
FLOCK 4G-36             
1 62675U 25009BU  26115.79817374  .00011130  00000+0  40583-3 0  9991
2 62675  97.4016 197.8251 0006074 137.3786 222.7926 15.28318127 70892
FLOCK 4G-15             
1 62678U 25009BX  26115.74235225  .00009691  00000+0  35367-3 0  9991
2 62678  97.4018 197.9038 0006233 134.7278 225.4471 15.28326460128534
FLOCK 4G-30             
1 62679U 25009BY  26115.79846561  .00038532  00000+0  13847-2 0  9992
2 62679  97.3927 197.3222 0005548 150.1141 210.0417 15.28526712128533
FLOCK 4G-18             
1 62680U 25009BZ  26115.80559443  .00011533  00000+0  42054-3 0  9991
2 62680  97.4015 197.7954 0006489 145.1110 215.0556 15.28305158128533
FLOCK 4G-17             
1 62681U 25009CA  26115.84283503  .00013315  00000+0  48267-3 0  9999
2 62681  97.3928 197.5522 0005835 147.8569 212.3027 15.28467736128552
FLOCK 4G-33             
1 62685U 25009CE  26115.76054970  .00006644  00000+0  27041-3 0  9992
2 62685  97.3948 196.2573 0006734 143.7445 216.4250 15.24818542 70816
PELICAN-3               
1 65315U 25188A   26115.82993991  .00010159  00000+0  25140-3 0  9999
2 65315  97.1984 192.7722 0002700 131.4059 228.7420 15.40622474 37259
PELICAN-4               
1 65316U 25188B   26115.78020164  .00001128  00000+0  29711-4 0  9993
2 65316  97.2049 192.8692 0005256 163.5854 196.5564 15.40614772 37240
PELICAN-5               
1 66667U 25276B   26115.78501602  .00003973  00000+0  14608-3 0  9990
2 66667  97.4167 190.9552 0004540 149.4728 210.6777 15.28471228 22516
