[{"OBJECT_NAME":"FLOCK 4G-31","OBJECT_ID":"2025-009AV","EPOCH":"2026-04-25T18:44:24.106848","MEAN_MOTION":15.28039568,"ECCENTRICITY":0.0003028,"INCLINATION":97.3971,"RA_OF_ASC_NODE":197.6954,"ARG_OF_PERICENTER":125.0877,"MEAN_ANOMALY":235.0647,"EPHEMERIS_TYPE":0,"CLASSIFICATION_TYPE":"U","NORAD_CAT_ID":62652,"ELEMENT_SET_NO":999,"REV_AT_EPOCH":7090,"BSTAR":0.00040547,"MEAN_MOTION_DOT":0.00011022,"MEAN_MOTION_DDOT":0},{"OBJECT_NAME":"FLOCK 4G-4","OBJECT_ID":"2025-009BC","EPOCH":"2026-04-25T19:02:23.366400","MEAN_MOTION":15.27803809,"ECCENTRICITY":0.0003834,"INCLINATION":97.3954,"RA_OF_ASC_NODE":197.4473,"ARG_OF_PERICENTER":132.3387,"MEAN_ANOMALY":227.8177,"EPHEMERIS_TYPE":0,"CLASSIFICATION_TYPE":"U","NORAD_CAT_ID":62659,"ELEMENT_SET_NO":999,"REV_AT_EPOCH":12850,"BSTAR":0.00037185,"MEAN_MOTION_DOT":0.00010029,"MEAN_MOTION_DDOT":0},{"OBJECT_NAME":"FLOCK 4G-6","OBJECT_ID":"2025-009BD","EPOCH":"2026-04-25T19:03:51.394176","MEAN_MOTION":15.28559673,"ECCENTRICITY":0.0004591,"INCLINATION":97.3945,"RA_OF_ASC_NODE":197.5327,"ARG_OF_PERICENTER":142.8685,"MEAN_ANOMALY":217.2873,"EPHEMERIS_TYPE":0,"CLASSIFICATION_TYPE":"U","NORAD_CAT_ID":62660,"ELEMENT_SET_NO":999,"REV_AT_EPOCH":12849,"BSTAR":0.0003693,"MEAN_MOTION_DOT":0.00010193,"MEAN_MOTION_DDOT":0},{"OBJECT_NAME":"FLOCK 4G-2","OBJECT_ID":"2025-009BE","EPOCH":"2026-04-25T17:43:09.437088","MEAN_MOTION":15.28807005,"ECCENTRICITY":0.0005423,"INCLINATION":97.4009,"RA_OF_ASC_NODE":198.0115,"ARG_OF_PERICENTER":139.6457,"MEAN_ANOMALY":220.5186,"EPHEMERIS_TYPE":0,"CLASSIFICATION_TYPE":"U","NORAD_CAT_ID":62661,"ELEMENT_SET_NO":999,"REV_AT_EPOCH":12851,"BSTAR":0.00038346,"MEAN_MOTION_DOT":0.00010669,"MEAN_MOTION_DDOT":0},{"OBJECT_NAME":"FLOCK 4G-5","OBJECT_ID":"2025-009BG","EPOCH":"2026-04-25T18:25:30.734976","MEAN_MOTION":15.29570052,"ECCENTRICITY":0.0004822,"INCLINATION":97.4024,"RA_OF_ASC_NODE":198.3418,"ARG_OF_PERICENTER":125.001,"MEAN_ANOMALY":235.1683,"EPHEMERIS_TYPE":0,"CLASSIFICATION_TYPE":"U","NORAD_CAT_ID":62663,"ELEMENT_SET_NO":999,"REV_AT_EPOCH":7092,"BSTAR":0.00035464,"MEAN_MOTION_DOT":0.00010094,"MEAN_MOTION_DDOT":0},{"OBJECT_NAME":"FLOCK 4G-1","OBJECT_ID":"2025-009BK","EPOCH":"2026-04-25T18:40:36.447168","MEAN_MOTION":15.28548669,"ECCENTRICITY":0.0005669,"INCLINATION":97.4024,"RA_OF_ASC_NODE":198.0388,"ARG_OF_PERICENTER":138.1839,"MEAN_ANOMALY":221.9835,"EPHEMERIS_TYPE":0,"CLASSIFICATION_TYPE":"U","NORAD_CAT_ID":62666,"ELEMENT_SET_NO":999,"REV_AT_EPOCH":7090,"BSTAR":0.00039473,"MEAN_MOTION_DOT":0.00010899,"MEAN_MOTION_DDOT":0},{"OBJECT_NAME":"FLOCK 4G-14","OBJECT_ID":"2025-009BL","EPOCH":"2026-04-25T18:53:36.360096","MEAN_MOTION":15.281762,"ECCENTRICITY":0.000592,"INCLINATION":97.4026,"RA_OF_ASC_NODE":197.8939,"ARG_OF_PERICENTER":133.0523,"MEAN_ANOMALY":227.1213,"EPHEMERIS_TYPE":0,"CLASSIFICATION_TYPE":"U","NORAD_CAT_ID":62667,"ELEMENT_SET_NO":999,"REV_AT_EPOCH":7089,"BSTAR":0.0003686,"MEAN_MOTION_DOT":0.00010057,"MEAN_MOTION_DDOT":0},{"OBJECT_NAME":"FLOCK 4G-10","OBJECT_ID":"2025-009BP","EPOCH":"2026-04-25T20:48:57.362112","MEAN_MOTION":15.28220236,"ECCENTRICITY":0.0005663,"INCLINATION":97.3928,"RA_OF_ASC_NODE":197.3689,"ARG_OF_PERICENTER":147.1717,"MEAN_ANOMALY":212.9876,"EPHEMERIS_TYPE":0,"CLASSIFICATION_TYPE":"U","NORAD_CAT_ID":62670,"ELEMENT_SET_NO":999,"REV_AT_EPOCH":12854,"BSTAR":0.00042797,"MEAN_MOTION_DOT":0.00011706,"MEAN_MOTION_DDOT":0},{"OBJECT_NAME":"FLOCK 4G-36","OBJECT_ID":"2025-009BU","EPOCH":"2026-04-25T19:09:22.211136","MEAN_MOTION":15.28318127,"ECCENTRICITY":0.0006074,"INCLINATION":97.4016,"RA_OF_ASC_NODE":197.8251,"ARG_OF_PERICENTER":137.3786,"MEAN_ANOMALY":222.7926,"EPHEMERIS_TYPE":0,"CLASSIFICATION_TYPE":"U","NORAD_CAT_ID":62675,"ELEMENT_SET_NO":999,"REV_AT_EPOCH":7089,"BSTAR":0.00040583,"MEAN_MOTION_DOT":0.0001113,"MEAN_MOTION_DDOT":0},{"OBJECT_NAME":"FLOCK 4G-15","OBJECT_ID":"2025-009BX","EPOCH":"2026-04-25T17:48:59.234400","MEAN_MOTION":15.2832646,"ECCENTRICITY":0.0006233,"INCLINATION":97.4018,"RA_OF_ASC_NODE":197.9038,"ARG_OF_PERICENTER":134.7278,"MEAN_ANOMALY":225.4471,"EPHEMERIS_TYPE":0,"CLASSIFICATION_TYPE":"U","NORAD_CAT_ID":62678,"ELEMENT_SET_NO":999,"REV_AT_EPOCH":12853,"BSTAR":0.00035367,"MEAN_MOTION_DOT":9.691e-5,"MEAN_MOTION_DDOT":0},{"OBJECT_NAME":"FLOCK 4G-30","OBJECT_ID":"2025-009BY","EPOCH":"2026-04-25T19:09:47.428704","MEAN_MOTION":15.28526712,"ECCENTRICITY":0.0005548,"INCLINATION":97.3927,"RA_OF_ASC_NODE":197.3222,"ARG_OF_PERICENTER":150.1141,"MEAN_ANOMALY":210.0417,"EPHEMERIS_TYPE":0,"CLASSIFICATION_TYPE":"U","NORAD_CAT_ID":62679,"ELEMENT_SET_NO":999,"REV_AT_EPOCH":12853,"BSTAR":0.0013847,"MEAN_MOTION_DOT":0.00038532,"MEAN_MOTION_DDOT":0},{"OBJECT_NAME":"FLOCK 4G-18","OBJECT_ID":"2025-009BZ","EPOCH":"2026-04-25T19:20:03.358752","MEAN_MOTION":15.28305158,"ECCENTRICITY":0.0006489,"INCLINATION":97.4015,"RA_OF_ASC_NODE":197.7954,"ARG_OF_PERICENTER":145.111,"MEAN_ANOMALY":215.0556,"EPHEMERIS_TYPE":0,"CLASSIFICATION_TYPE":"U","NORAD_CAT_ID":62680,"ELEMENT_SET_NO":999,"REV_AT_EPOCH":12853,"BSTAR":0.00042054,"MEAN_MOTION_DOT":0.00011533,"MEAN_MOTION_DDOT":0},{"OBJECT_NAME":"FLOCK 4G-17","OBJECT_ID":"2025-009CA","EPOCH":"2026-04-25T20:13:40.946592","MEAN_MOTION":15.28467736,"ECCENTRICITY":0.0005835,"INCLINATION":97.3928,"RA_OF_ASC_NODE":197.5522,"ARG_OF_PERICENTER":147.8569,"MEAN_ANOMALY":212.3027,"EPHEMERIS_TYPE":0,"CLASSIFICATION_TYPE":"U","NORAD_CAT_ID":62681,"ELEMENT_SET_NO":999,"REV_AT_EPOCH":12855,"BSTAR":0.00048267,"MEAN_MOTION_DOT":0.00013315,"MEAN_MOTION_DDOT":0},{"OBJECT_NAME":"FLOCK 4G-33","OBJECT_ID":"2025-009CE","EPOCH":"2026-04-25T18:15:11.494080","MEAN_MOTION":15.24818542,"ECCENTRICITY":0.0006734,"INCLINATION":97.3948,"RA_OF_ASC_NODE":196.2573,"ARG_OF_PERICENTER":143.7445,"MEAN_ANOMALY":216.425,"EPHEMERIS_TYPE":0,"CLASSIFICATION_TYPE":"U","NORAD_CAT_ID":62685,"ELEMENT_SET_NO":999,"REV_AT_EPOCH":7081,"BSTAR":0.00027041,"MEAN_MOTION_DOT":6.644e-5,"MEAN_MOTION_DDOT":0},{"OBJECT_NAME":"PELICAN-3","OBJECT_ID":"2025-188A","EPOCH":"2026-04-25T19:55:06.808224","MEAN_MOTION":15.40622474,"ECCENTRICITY":0.00027,"INCLINATION":97.1984,"RA_OF_ASC_NODE":192.7722,"ARG_OF_PERICENTER":131.4059,"MEAN_ANOMALY":228.742,"EPHEMERIS_TYPE":0,"CLASSIFICATION_TYPE":"U","NORAD_CAT_ID":65315,"ELEMENT_SET_NO":999,"REV_AT_EPOCH":3725,"BSTAR":0.0002514,"MEAN_MOTION_DOT":0.00010159,"MEAN_MOTION_DDOT":0},{"OBJECT_NAME":"PELICAN-4","OBJECT_ID":"2025-188B","EPOCH":"2026-04-25T18:43:29.421696","MEAN_MOTION":15.40614772,"ECCENTRICITY":0.0005256,"INCLINATION":97.2049,"RA_OF_ASC_NODE":192.8692,"ARG_OF_PERICENTER":163.5854,"MEAN_ANOMALY":196.5564,"EPHEMERIS_TYPE":0,"CLASSIFICATION_TYPE":"U","NORAD_CAT_ID":65316,"ELEMENT_SET_NO":999,"REV_AT_EPOCH":3724,"BSTAR":2.9711e-5,"MEAN_MOTION_DOT":1.128e-5,"MEAN_MOTION_DDOT":0},{"OBJECT_NAME":"PELICAN-5","OBJECT_ID":"2025-276B","EPOCH":"2026-04-25T18:50:25.384128","MEAN_MOTION":15.28471228,"ECCENTRICITY":0.000454,"INCLINATION":97.4167,"RA_OF_ASC_NODE":190.9552,"ARG_OF_PERICENTER":149.4728,"MEAN_ANOMALY":210.6777,"EPHEMERIS_TYPE":0,"CLASSIFICATION_TYPE":"U","NORAD_CAT_ID":66667,"ELEMENT_SET_NO":999,"REV_AT_EPOCH":2251,"BSTAR":0.00014608,"MEAN_MOTION_DOT":3.973e-5,"MEAN_MOTION_DDOT":0}]
